NORAD_CAT_ID,OBJECT_NAME,OBJECT_TYPE,EPOCH,MEAN_MOTION,ECCENTRICITY,INCLINATION,RA_OF_ASC_NODE,ARG_OF_PERICENTER,MEAN_ANOMALY,BSTAR,MEAN_MOTION_DOT,MEAN_MOTION_DDOT,TLE_LINE0,TLE_LINE1,TLE_LINE2,SEMIMAJOR_AXIS,PERIOD,APOGEE,PERIGEE,DECAYED
54191.0,STARLINK-4619,PAYLOAD,2023-09-10 19:36:00,15.0882706,0.000138,53.2167,123.4254,95.7412,264.3737,0.000118,1.59e-05,0.0,0 STARLINK-4619,1 54191U 22141AL  23253.81667354  .00001590  00000-0  11800-3 0  9993,2 54191  53.2167 123.4254 0001380  95.7412 264.3737 15.08827060 48716,6917.92,95.438,540.74,538.83,0.0
54191.0,STARLINK-4619,PAYLOAD,2023-09-11 08:19:05,15.08833342,0.0001421,53.2166,121.0453,83.786,276.3294,0.00019019,2.74e-05,0.0,0 STARLINK-4619,1 54191U 22141AL  23254.34659394  .00002740  00000-0  19019-3 0  9995,2 54191  53.2166 121.0453 0001421  83.7860 276.3294 15.08833342 48564,6917.901,95.438,540.749,538.783,0.0
54191.0,STARLINK-4619,PAYLOAD,2023-09-12 00:12:56,15.08844981,0.0001394,53.2169,118.072,86.1416,273.9735,0.00024395,3.597e-05,0.0,0 STARLINK-4619,1 54191U 22141AL  23255.00898950  .00003597  00000-0  24395-3 0  9996,2 54191  53.2169 118.0720 0001394  86.1416 273.9735 15.08844981 48893,6917.865,95.437,540.695,538.766,0.0
54191.0,STARLINK-4619,PAYLOAD,2023-09-12 20:52:57,15.08845009,0.0001441,53.2166,114.2056,106.334,253.781,0.00010913,1.45e-05,0.0,0 STARLINK-4619,1 54191U 22141AL  23255.87011340  .00001450  00000-0  10913-3 0  9998,2 54191  53.2166 114.2056 0001441 106.3340 253.7810 15.08845009 48795,6917.865,95.437,540.727,538.733,0.0
54191.0,STARLINK-4619,PAYLOAD,2023-09-12 22:28:20,15.08845443,0.0001348,53.2159,113.9081,97.0173,263.0973,0.0001228,1.667e-05,0.0,0 STARLINK-4619,1 54191U 22141AL  23255.93635246  .00001667  00000-0  12280-3 0  9991,2 54191  53.2159 113.9081 0001348  97.0173 263.0973 15.08845443 49031,6917.864,95.437,540.661,538.796,0.0
54191.0,STARLINK-4619,PAYLOAD,2023-09-13 20:43:44,15.08854506,0.0001372,53.2163,109.7424,97.0669,263.0479,0.00013766,1.904e-05,0.0,0 STARLINK-4619,1 54191U 22141AL  23256.86370471  .00001904  00000-0  13766-3 0  9994,2 54191  53.2163 109.7424 0001372  97.0669 263.0479 15.08854506 48947,6917.836,95.437,540.65,538.752,0.0
54191.0,STARLINK-4619,PAYLOAD,2023-09-13 23:54:30,15.08859455,0.000135,53.2161,109.1511,88.3681,271.7466,0.00024406,3.6e-05,0.0,0 STARLINK-4619,1 54191U 22141AL  23256.99618259  .00003600  00000-0  24406-3 0  9995,2 54191  53.2161 109.1511 0001350  88.3681 271.7466 15.08859455 49197,6917.821,95.436,540.62,538.752,0.0
54191.0,STARLINK-4619,PAYLOAD,2023-09-14 17:23:45,15.08836306,0.0001244,53.216,105.8774,89.0995,271.0139,-5.5415e-05,-1.17e-05,0.0,0 STARLINK-4619,1 54191U 22141AL  23257.72483345 -.00001170  00000-0 -55415-4 0  9990,2 54191  53.2160 105.8774 0001244  89.0995 271.0139 15.08836306 49301,6917.892,95.438,540.617,538.896,0.0
54191.0,STARLINK-4619,PAYLOAD,2023-09-14 20:34:31,15.08834609,0.0001229,53.2155,105.2853,93.0569,267.0564,-7.7678e-05,-1.524e-05,0.0,0 STARLINK-4619,1 54191U 22141AL  23257.85731451 -.00001524  00000-0 -77678-4 0  9996,2 54191  53.2155 105.2853 0001229  93.0569 267.0564 15.08834609 49099,6917.897,95.438,540.612,538.912,0.0
54191.0,STARLINK-4619,PAYLOAD,2023-09-15 14:03:46,15.08842142,0.0001195,53.2161,102.0139,93.3219,266.791,1.2316e-05,-9.2e-07,0.0,0 STARLINK-4619,1 54191U 22141AL  23258.58595363 -.00000092  00000-0  12316-4 0  9993,2 54191  53.2161 102.0139 0001195  93.3219 266.7910 15.08842142 49200,6917.874,95.437,540.566,538.912,0.0
54191.0,STARLINK-4619,PAYLOAD,2023-09-15 17:14:32,15.08845382,0.0001184,53.2158,101.42,92.1999,267.9129,8.9194e-05,1.132e-05,0.0,0 STARLINK-4619,1 54191U 22141AL  23258.71843228  .00001132  00000-0  89194-4 0  9997,2 54191  53.2158 101.4200 0001184  92.1999 267.9129 15.08845382 49459,6917.864,95.437,540.548,538.91,0.0
54191.0,STARLINK-4619,PAYLOAD,2023-09-15 20:25:18,15.08847212,0.0001216,53.2157,100.8251,93.4311,266.682,0.00022408,3.281e-05,0.0,0 STARLINK-4619,1 54191U 22141AL  23258.85091195  .00003281  00000-0  22408-3 0  9991,2 54191  53.2157 100.8251 0001216  93.4311 266.6820 15.08847212 49240,6917.858,95.437,540.565,538.882,0.0
54191.0,STARLINK-4619,PAYLOAD,2023-09-16 17:05:20,15.08836902,0.0001235,53.2157,96.9594,96.2663,263.847,0.00012634,1.723e-05,0.0,0 STARLINK-4619,1 54191U 22141AL  23259.71203808  .00001723  00000-0  12634-3 0  9992,2 54191  53.2157  96.9594 0001235  96.2663 263.8470 15.08836902 49601,6917.89,95.438,540.609,538.9,0.0
54191.0,STARLINK-4619,PAYLOAD,2023-09-16 23:26:52,15.08841635,0.0001216,53.2158,95.7702,95.0601,265.053,0.00017485,2.496e-05,0.0,0 STARLINK-4619,1 54191U 22141AL  23259.97699679  .00002496  00000-0  17485-3 0  9992,2 54191  53.2158  95.7702 0001216  95.0601 265.0530 15.08841635 49417,6917.875,95.437,540.582,538.899,0.0
54191.0,STARLINK-4619,PAYLOAD,2023-09-17 18:31:29,15.08848152,0.0001174,53.2162,92.2007,92.2146,267.898,0.00014479,2.018e-05,0.0,0 STARLINK-4619,1 54191U 22141AL  23260.77187333  .00002018  00000-0  14479-3 0  9991,2 54191  53.2162  92.2007 0001174  92.2146 267.8980 15.08848152 49766,6917.855,95.437,540.533,538.908,0.0
54191.0,STARLINK-4619,PAYLOAD,2023-09-18 05:39:12,15.08835994,0.0001508,53.2162,90.1172,88.4144,271.702,-1.842e-05,-5.81e-06,0.0,0 STARLINK-4619,1 54191U 22141AL  23261.23555787 -.00000581  00000-0 -18420-4 0  9991,2 54191  53.2162  90.1172 0001508  88.4144 271.7020 15.08835994 49839,6917.893,95.438,540.801,538.714,0.0
54191.0,STARLINK-4619,PAYLOAD,2023-09-18 19:57:40,15.08841924,0.0001452,53.2167,87.4408,81.437,278.6786,0.00011635,1.564e-05,0.0,0 STARLINK-4619,1 54191U 22141AL  23261.83171816  .00001564  00000-0  11635-3 0  9994,2 54191  53.2167  87.4408 0001452  81.4370 278.6786 15.08841924 49696,6917.875,95.437,540.744,538.735,0.0
54191.0,STARLINK-4619,PAYLOAD,2023-09-18 23:08:26,15.08845396,0.0001441,53.2164,86.8474,81.094,279.0215,0.00019104,2.754e-05,0.0,0 STARLINK-4619,1 54191U 22141AL  23261.96419639  .00002754  00000-0  19104-3 0  9997,2 54191  53.2164  86.8474 0001441  81.0940 279.0215 15.08845396 49943,6917.864,95.437,540.726,538.732,0.0
54191.0,STARLINK-4619,PAYLOAD,2023-09-19 22:59:13,15.08860674,0.0001379,53.2156,82.3881,89.0993,271.0157,0.00066106,0.00010254,0.0,0 STARLINK-4619,1 54191U 22141AL  23262.95779041  .00010254  00000-0  66106-3 0  9991,2 54191  53.2156  82.3881 0001379  89.0993 271.0157 15.08860674 50094,6917.817,95.436,540.636,538.728,0.0
54191.0,STARLINK-4619,PAYLOAD,2023-09-20 11:42:19,15.08829672,0.0001615,53.2156,80.0095,78.3028,281.8145,-0.00014492,-2.593e-05,0.0,0 STARLINK-4619,1 54191U 22141AL  23263.48772190 -.00002593  00000-0 -14492-3 0  9998,2 54191  53.2156  80.0095 0001615  78.3028 281.8145 15.08829672 49940,6917.912,95.438,540.894,538.66,0.0
54191.0,STARLINK-4619,PAYLOAD,2023-09-20 18:03:51,15.08827037,0.0001304,53.216,78.8201,76.472,283.6418,-7.7037e-05,-1.513e-05,0.0,0 STARLINK-4619,1 54191U 22141AL  23263.75268472 -.00001513  00000-0 -77037-4 0  9997,2 54191  53.2160  78.8201 0001304  76.4720 283.6418 15.08827037 50210,6917.92,95.438,540.687,538.883,0.0
54191.0,STARLINK-4619,PAYLOAD,2023-09-20 21:14:38,15.08828647,0.0001367,53.2161,78.2245,78.6071,281.5075,4.8098e-05,4.77e-06,0.0,0 STARLINK-4619,1 54191U 22141AL  23263.88516587  .00000477  00000-0  48098-4 0  9995,2 54191  53.2161  78.2245 0001367  78.6071 281.5075 15.08828647 50006,6917.915,95.438,540.726,538.834,0.0
54191.0,STARLINK-4619,PAYLOAD,2023-09-21 05:11:34,15.08835322,0.0001336,53.2161,76.7376,74.911,285.203,0.00038469,5.839e-05,0.0,0 STARLINK-4619,1 54191U 22141AL  23264.21636754  .00005839  00000-0  38469-3 0  9999,2 54191  53.2161  76.7376 0001336  74.9110 285.2030 15.08835322 50058,6917.895,95.438,540.684,538.835,0.0
54191.0,STARLINK-4619,PAYLOAD,2023-09-21 17:54:39,15.08849627,0.0001293,53.216,74.358,68.3625,291.7505,0.00088818,0.00013879,0.0,0 STARLINK-4619,1 54191U 22141AL  23264.74628729  .00013879  00000-0  88818-3 0  9996,2 54191  53.2160  74.3580 0001293  68.3625 291.7505 15.08849627 50364,6917.851,95.437,540.61,538.821,0.0
54191.0,STARLINK-4619,PAYLOAD,2023-09-21 21:05:25,15.08856679,0.0001315,53.216,73.7633,68.097,292.0162,0.0010195,0.00015982,0.0,0 STARLINK-4619,1 54191U 22141AL  23264.87876569  .00015982  00000-0  10195-2 0  9996,2 54191  53.2160  73.7633 0001315  68.0970 292.0162 15.08856679 50156,6917.829,95.436,540.604,538.785,0.0
54191.0,STARLINK-4619,PAYLOAD,2023-09-22 11:23:53,15.08848315,0.0001521,53.2159,71.087,76.9861,283.1301,0.00025788,3.819e-05,0.0,0 STARLINK-4619,1 54191U 22141AL  23265.47492286  .00003819  00000-0  25788-3 0  9994,2 54191  53.2159  71.0870 0001521  76.9861 283.1301 15.08848315 50473,6917.855,95.437,540.772,538.668,0.0
54191.0,STARLINK-4619,PAYLOAD,2023-09-22 17:45:25,15.08851061,0.0001395,53.2171,69.897,78.108,282.0069,0.0003616,5.473e-05,0.0,0 STARLINK-4619,1 54191U 22141AL  23265.73988235  .00005473  00000-0  36160-3 0  9991,2 54191  53.2171  69.8970 0001395  78.1080 282.0069 15.08851061 50289,6917.847,95.437,540.677,538.747,0.0
54191.0,STARLINK-4619,PAYLOAD,2023-09-23 17:36:12,15.08843524,0.0001236,53.2166,65.4363,74.9872,285.1257,4.1125e-05,3.67e-06,0.0,0 STARLINK-4619,1 54191U 22141AL  23266.73348141  .00000367  00000-0  41125-4 0  9993,2 54191  53.2166  65.4363 0001236  74.9872 285.1257 15.08843524 50668,6917.87,95.437,540.59,538.88,0.0
54191.0,STARLINK-4619,PAYLOAD,2023-09-24 11:05:27,15.08834873,0.0001266,53.2167,62.1653,75.3227,284.7905,-2.9719e-05,-7.61e-06,0.0,0 STARLINK-4619,1 54191U 22141AL  23267.46212598 -.00000761  00000-0 -29719-4 0  9995,2 54191  53.2167  62.1653 0001266  75.3227 284.7905 15.08834873 50771,6917.896,95.438,540.637,538.885,0.0
54191.0,STARLINK-4619,PAYLOAD,2023-09-24 14:16:13,15.08840053,0.0001245,53.2171,61.5719,80.9566,279.1567,2.4216e-05,9.8e-07,0.0,0 STARLINK-4619,1 54191U 22141AL  23267.59460589  .00000098  00000-0  24216-4 0  9992,2 54191  53.2171  61.5719 0001245  80.9566 279.1567 15.08840053 50563,6917.88,95.438,540.607,538.884,0.0
